NORAD_CAT_ID,OBJECT_NAME,OBJECT_TYPE,EPOCH,MEAN_MOTION,ECCENTRICITY,INCLINATION,RA_OF_ASC_NODE,ARG_OF_PERICENTER,MEAN_ANOMALY,BSTAR,MEAN_MOTION_DOT,MEAN_MOTION_DDOT,TLE_LINE0,TLE_LINE1,TLE_LINE2,SEMIMAJOR_AXIS,PERIOD,APOGEE,PERIGEE,DECAYED
52295.0,STARLINK-3765,PAYLOAD,2023-11-25 23:59:26,15.08852311,0.0001643,53.2176,246.1862,102.1989,257.9188,0.00050383,7.742e-05,0.0,0 STARLINK-3765,1 52295U 22041AL  23329.99961677  .00007742  00000-0  50383-3 0  9997,2 52295  53.2176 246.1862 0001643 102.1989 257.9188 15.08852311 89711,6917.843,95.437,540.844,538.571,0.0
52295.0,STARLINK-3765,PAYLOAD,2023-11-26 22:14:51,15.08831273,0.0002526,53.2157,242.0235,136.3539,223.7653,-0.00023524,-4.03e-05,0.0,0 STARLINK-3765,1 52295U 22041AL  23330.92698414 -.00004030  00000-0 -23524-3 0  9994,2 52295  53.2157 242.0235 0002526 136.3539 223.7653 15.08831273 88632,6917.907,95.438,541.52,538.025,0.0
52295.0,STARLINK-3765,PAYLOAD,2023-11-27 01:25:38,15.08827704,0.0001694,53.2164,241.4296,120.9849,239.131,-0.00022358,-3.843e-05,0.0,0 STARLINK-3765,1 52295U 22041AL  23331.05946824 -.00003843  00000-0 -22358-3 0  9995,2 52295  53.2164 241.4296 0001694 120.9849 239.1310 15.08827704 89870,6917.918,95.438,540.955,538.611,0.0
52295.0,STARLINK-3765,PAYLOAD,2023-11-27 22:05:38,15.08841152,0.0001432,53.2171,237.5677,109.0848,251.0299,-2.1005e-05,-6.22e-06,0.0,0 STARLINK-3765,1 52295U 22041AL  23331.92058900 -.00000622  00000-0 -21005-4 0  9991,2 52295  53.2171 237.5677 0001432 109.0848 251.0299 15.08841152 88785,6917.877,95.437,540.733,538.751,0.0
52295.0,STARLINK-3765,PAYLOAD,2023-11-28 02:51:47,15.08850667,0.0001665,53.2174,236.6749,114.662,245.4545,0.00036329,5.5e-05,0.0,0 STARLINK-3765,1 52295U 22041AL  23332.11930384  .00005500  00000-0  36329-3 0  9990,2 52295  53.2174 236.6749 0001665 114.6620 245.4545 15.08850667 90039,6917.848,95.437,540.865,538.561,0.0
52295.0,STARLINK-3765,PAYLOAD,2023-11-28 17:10:16,15.08846061,0.0001893,53.2169,234.0031,97.8781,262.2426,0.00030969,4.645e-05,0.0,0 STARLINK-3765,1 52295U 22041AL  23332.71547044  .00004645  00000-0  30969-3 0  9996,2 52295  53.2169 234.0031 0001893  97.8781 262.2426 15.08846061 90120,6917.862,95.437,541.036,538.417,0.0
52295.0,STARLINK-3765,PAYLOAD,2023-11-28 21:56:26,15.08843205,0.0002016,53.2169,233.1051,124.3366,235.7818,0.00025684,3.802e-05,0.0,0 STARLINK-3765,1 52295U 22041AL  23332.91419052  .00003802  00000-0  25684-3 0  9997,2 52295  53.2169 233.1051 0002016 124.3366 235.7818 15.08843205 88938,6917.871,95.437,541.13,538.341,0.0
52295.0,STARLINK-3765,PAYLOAD,2023-11-29 01:07:12,15.08844886,0.0001488,53.2166,232.5126,97.6067,262.5094,0.00027281,4.057e-05,0.0,0 STARLINK-3765,1 52295U 22041AL  23333.04667107  .00004057  00000-0  27281-3 0  9996,2 52295  53.2166 232.5126 0001488  97.6067 262.5094 15.08844886 88955,6917.865,95.437,540.76,538.701,0.0
52295.0,STARLINK-3765,PAYLOAD,2023-11-30 02:33:22,15.08848896,0.0001613,53.2175,227.7482,87.7514,272.3663,8.3477e-05,1.041e-05,0.0,0 STARLINK-3765,1 52295U 22041AL  23334.10650897  .00001041  00000-0  83477-4 0  9992,2 52295  53.2175 227.7482 0001613  87.7514 272.3663 15.08848896 90334,6917.853,95.437,540.834,538.602,0.0
52295.0,STARLINK-3765,PAYLOAD,2023-11-30 23:13:24,15.08834941,0.0001825,53.217,223.8919,65.7871,294.3312,6.7326e-05,7.83e-06,0.0,0 STARLINK-3765,1 52295U 22041AL  23334.96764193  .00000783  00000-0  67326-4 0  9998,2 52295  53.2170 223.8919 0001825  65.7871 294.3312 15.08834941 90463,6917.896,95.438,541.023,538.498,0.0
52295.0,STARLINK-3765,PAYLOAD,2023-12-01 19:53:25,15.08829529,0.0001451,53.2173,220.018,97.0352,263.0806,-1.9246e-05,-5.94e-06,0.0,0 STARLINK-3765,1 52295U 22041AL  23335.82876823 -.00000594  00000-0 -19246-4 0  9998,2 52295  53.2173 220.0180 0001451  97.0352 263.0806 15.08829529 90593,6917.912,95.438,540.781,538.774,0.0
52295.0,STARLINK-3765,PAYLOAD,2023-12-01 21:28:48,15.08845455,0.0002065,53.2178,219.7116,124.1969,235.9219,0.00032872,4.948e-05,0.0,0 STARLINK-3765,1 52295U 22041AL  23335.89500162  .00004948  00000-0  32872-3 0  9999,2 52295  53.2178 219.7116 0002065 124.1969 235.9219 15.08845455 89387,6917.864,95.437,541.157,538.3,0.0
52295.0,STARLINK-3765,PAYLOAD,2023-12-01 23:04:11,15.08852818,0.0001608,53.2165,219.4245,115.8085,244.3073,0.00032705,4.923e-05,0.0,0 STARLINK-3765,1 52295U 22041AL  23335.96123867  .00004923  00000-0  32705-3 0  9998,2 52295  53.2165 219.4245 0001608 115.8085 244.3073 15.08852818 90612,6917.841,95.437,540.819,538.594,0.0
52295.0,STARLINK-3765,PAYLOAD,2023-12-02 19:44:11,15.08850683,0.0001625,53.2168,215.5627,109.5421,250.5747,0.00024881,3.675e-05,0.0,0 STARLINK-3765,1 52295U 22041AL  23336.82235903  .00003675  00000-0  24881-3 0  9998,2 52295  53.2168 215.5627 0001625 109.5421 250.5747 15.08850683 90748,6917.848,95.437,540.837,538.589,0.0
52295.0,STARLINK-3765,PAYLOAD,2023-12-02 22:54:57,15.08850337,0.0001475,53.2163,214.9676,95.7845,264.3315,0.00021431,3.125e-05,0.0,0 STARLINK-3765,1 52295U 22041AL  23336.95483568  .00003125  00000-0  21431-3 0  9992,2 52295  53.2163 214.9676 0001475  95.7845 264.3315 15.08850337 89545,6917.849,95.437,540.734,538.693,0.0
52295.0,STARLINK-3765,PAYLOAD,2023-12-03 02:05:44,15.08851151,0.0001555,53.2162,214.3697,81.3908,278.726,0.00021668,3.163e-05,0.0,0 STARLINK-3765,1 52295U 22041AL  23337.08731503  .00003163  00000-0  21668-3 0  9996,2 52295  53.2162 214.3697 0001555  81.3908 278.7260 15.08851151 89566,6917.846,95.437,540.787,538.636,0.0
52295.0,STARLINK-3765,PAYLOAD,2023-12-03 19:34:59,15.08837118,0.0001577,53.2153,211.092,116.2375,243.878,-0.00020627,-3.569e-05,0.0,0 STARLINK-3765,1 52295U 22041AL  23337.81596341 -.00003569  00000-0 -20627-3 0  9992,2 52295  53.2153 211.0920 0001577 116.2375 243.8780 15.08837118 90894,6917.889,95.438,540.845,538.663,0.0
52295.0,STARLINK-3765,PAYLOAD,2023-12-04 01:56:32,15.08831885,0.0001437,53.2162,209.9096,94.8778,265.2378,-0.00018091,-3.165e-05,0.0,0 STARLINK-3765,1 52295U 22041AL  23338.08092883 -.00003165  00000-0 -18091-3 0  9998,2 52295  53.2162 209.9096 0001437  94.8778 265.2378 15.08831885 89712,6917.905,95.438,540.764,538.776,0.0
52295.0,STARLINK-3765,PAYLOAD,2023-12-04 16:14:59,15.08843272,0.0001322,53.2157,207.236,103.9095,256.2044,-3.1448e-05,-7.88e-06,0.0,0 STARLINK-3765,1 52295U 22041AL  23338.67708296 -.00000788  00000-0 -31448-4 0  9995,2 52295  53.2157 207.2360 0001322 103.9095 256.2044 15.08843272 91028,6917.87,95.437,540.65,538.821,0.0
52295.0,STARLINK-3765,PAYLOAD,2023-12-05 01:47:18,15.08853648,0.0001422,53.2165,205.4509,112.1437,247.9706,5.8931e-05,6.5e-06,0.0,0 STARLINK-3765,1 52295U 22041AL  23339.07451612  .00000650  00000-0  58931-4 0  9999,2 52295  53.2165 205.4509 0001422 112.1437 247.9706 15.08853648 91081,6917.839,95.437,540.687,538.72,0.0
52295.0,STARLINK-3765,PAYLOAD,2023-12-06 00:02:42,15.08840403,0.0001275,53.2161,201.2875,100.9977,259.1158,0.00020551,2.984e-05,0.0,0 STARLINK-3765,1 52295U 22041AL  23340.00188252  .00002984  00000-0  20551-3 0  9999,2 52295  53.2161 201.2875 0001275 100.9977 259.1158 15.08840403 91224,6917.879,95.438,540.626,538.862,0.0
52295.0,STARLINK-3765,PAYLOAD,2023-12-06 22:18:06,15.08843084,0.0001291,53.2166,197.1245,98.5658,261.5481,5.9667e-05,6.62e-06,0.0,0 STARLINK-3765,1 52295U 22041AL  23340.92924032  .00000662  00000-0  59667-4 0  9996,2 52295  53.2166 197.1245 0001291  98.5658 261.5481 15.08843084 90143,6917.871,95.437,540.629,538.843,0.0
52295.0,STARLINK-3765,PAYLOAD,2023-12-07 14:11:57,15.08839382,0.0001314,53.216,194.1508,98.0269,262.0872,-1.3858e-05,-5.08e-06,0.0,0 STARLINK-3765,1 52295U 22041AL  23341.59164004 -.00000508  00000-0 -13858-4 0  9998,2 52295  53.2160 194.1508 0001314  98.0269 262.0872 15.08839382 90242,6917.882,95.438,540.656,538.838,0.0
52295.0,STARLINK-3765,PAYLOAD,2023-12-07 23:44:16,15.08840341,0.0001332,53.216,192.3669,96.2124,263.902,9.7924e-06,-1.32e-06,0.0,0 STARLINK-3765,1 52295U 22041AL  23341.98907984 -.00000132  00000-0  97924-5 0  9992,2 52295  53.2160 192.3669 0001332  96.2124 263.9020 15.08840341 90309,6917.879,95.438,540.666,538.823,0.0
52295.0,STARLINK-3765,PAYLOAD,2023-12-10 20:05:51,15.0883956,0.0001417,53.2155,179.5789,89.1171,270.9984,5.1527e-06,-2.06e-06,0.0,0 STARLINK-3765,1 52295U 22041AL  23344.83739959 -.00000206  00000-0  51527-5 0  9995,2 52295  53.2155 179.5789 0001417  89.1171 270.9984 15.08839560 91950,6917.882,95.438,540.727,538.766,0.0
52295.0,STARLINK-3765,PAYLOAD,2023-12-11 19:56:38,15.08839775,0.0001423,53.2162,175.1173,99.4412,260.6741,6.6768e-05,7.75e-06,0.0,0 STARLINK-3765,1 52295U 22041AL  23345.83099898  .00000775  00000-0  66768-4 0  9999,2 52295  53.2162 175.1173 0001423  99.4412 260.6741 15.08839775 90882,6917.881,95.438,540.73,538.762,0.0
52295.0,STARLINK-3765,PAYLOAD,2023-12-12 19:47:26,15.08831794,0.0001342,53.2165,170.6589,84.6719,275.4426,4.9334e-05,4.97e-06,0.0,0 STARLINK-3765,1 52295U 22041AL  23346.82460711  .00000497  00000-0  49334-4 0  9996,2 52295  53.2165 170.6589 0001342  84.6719 275.4426 15.08831794 92252,6917.905,95.438,540.699,538.842,0.0
52295.0,STARLINK-3765,PAYLOAD,2023-12-13 19:38:13,15.08824084,0.0001458,53.2166,166.1982,95.6046,264.5112,0.00023313,3.423e-05,0.0,0 STARLINK-3765,1 52295U 22041AL  23347.81820816  .00003423  00000-0  23313-3 0  9992,2 52295  53.2166 166.1982 0001458  95.6046 264.5112 15.08824084 91189,6917.929,95.439,540.803,538.785,0.0
52295.0,STARLINK-3765,PAYLOAD,2023-12-14 19:28:58,15.08858349,0.0001216,53.2156,161.744,92.7894,267.3237,0.00024273,3.579e-05,0.0,0 STARLINK-3765,1 52295U 22041AL  23348.81178433  .00003579  00000-0  24273-3 0  9992,2 52295  53.2156 161.7440 0001216  92.7894 267.3237 15.08858349 92551,6917.824,95.436,540.531,538.848,0.0
52295.0,STARLINK-3765,PAYLOAD,2023-12-15 16:09:00,15.0884159,0.0001554,53.2172,157.8754,147.5413,212.5675,-4.0151e-05,-9.27e-06,0.0,0 STARLINK-3765,1 52295U 22041AL  23349.67291961 -.00000927  00000-0 -40151-4 0  9999,2 52295  53.2172 157.8754 0001554 147.5413 212.5675 15.08841590 92686,6917.876,95.437,540.816,538.665,0.0
